STARLINK-1714           
1 46562U 20070AG  24044.13713381  .00019349  00000+0  13125-2 0  9992
2 46562  53.0541 308.4143 0001442  75.0898 285.0250 15.06451396185606
STARLINK-1730           
1 46563U 20070AH  24043.92061390  .00017152  00000+0  11664-2 0  9991
2 46563  53.0536 309.3971 0001100  95.5734 264.5380 15.06437315185877
STARLINK-1733           
1 46564U 20070AJ  24044.00002315 -.00096341  00000+0 -65299-2 0  9996
2 46564  53.0537 309.1214 0001555  88.8110  42.1108 15.06439843  5826
STARLINK-1735           
1 46565U 20070AK  24044.14544087  .00017458  00000+0  11863-2 0  9997
2 46565  53.0547 308.3876 0001494  88.3405 271.7755 15.06454209185603
STARLINK-1740           
1 46566U 20070AL  24043.99801411  .00018841  00000+0  12788-2 0  9991
2 46566  53.0548 309.0507 0001448  68.4632 291.6512 15.06446699185565
STARLINK-1741           
1 46567U 20070AM  24043.89480433  .00010994  00000+0  75530-3 0  9994
2 46567  53.0545 309.5180 0000980  82.1397 277.9703 15.06425760185875
STARLINK-1747           
1 46569U 20070AP  24044.25001157  .00285941  00000+0  12406-2 0  9997
2 46569  53.0491 286.9003 0003697 218.9579 357.6863 15.83534925185915
STARLINK-1748           
1 46570U 20070AQ  24043.84226929  .00032222  00000+0  98116-3 0  9994
2 46570  53.0259 249.8142 0001955  78.2744 281.8476 15.33729157186712
STARLINK-1531           
1 46572U 20070AS  24043.94731582  .00005979  00000+0  41994-3 0  9994
2 46572  53.0546 329.2691 0001850 118.3868 241.7307 15.06400913185591
STARLINK-1660           
1 46574U 20070AU  24043.97728584  .00019306  00000+0  13103-2 0  9996
2 46574  53.0554 314.1461 0001436  66.8249 293.2891 15.06432607185810
STARLINK-1675           
1 46575U 20070AV  24044.09937870  .00009808  00000+0  67592-3 0  9999
2 46575  53.0534 288.5925 0001490  87.8317 272.2842 15.06426950186185
STARLINK-1677           
1 46576U 20070AW  24043.96990484  .00014189  00000+0  96854-3 0  9996
2 46576  53.0541 314.1787 0001316  89.3886 270.7254 15.06437387185816
STARLINK-1682           
1 46577U 20070AX  24043.93305119  .00021115  00000+0  14308-2 0  9999
2 46577  53.0539 314.3446 0001252  80.1588 279.9542 15.06436126185805
STARLINK-1683           
1 46578U 20070AY  24043.91417115  .00017326  00000+0  11781-2 0  9999
2 46578  53.0557 299.4728 0002092 111.7134 248.4078 15.06435021186015
STARLINK-1705           
1 46579U 20070AZ  24044.11733465  .00020594  00000+0  13953-2 0  9996
2 46579  53.0539 313.5189 0001306 108.0099 252.1032 15.06456832185813
STARLINK-1708           
1 46580U 20070BA  24044.16157449  .00018344  00000+0  12455-2 0  9991
2 46580  53.0544 313.3152 0001503 103.9445 256.1711 15.06450003185853
STARLINK-1712           
1 46581U 20070BB  24044.12701861  .00019156  00000+0  12998-2 0  9995
2 46581  53.0539 308.4687 0001233  85.5730 274.5399 15.06445775185900
STARLINK-1728           
1 46582U 20070BC  24044.11226919  .00018353  00000+0  12460-2 0  9993
2 46582  53.0540 308.5371 0001356 105.2288 254.8851 15.06452733185904
STARLINK-1729           
1 46583U 20070BD  24043.83030648  .00015677  00000+0  10684-2 0  9996
2 46583  53.0554 329.8053 0001386  92.3620 267.7528 15.06420194185575
STARLINK-1732           
1 46584U 20070BE  24044.11596959  .00006738  00000+0  47065-3 0  9993
2 46584  53.0545 308.5247 0001361 107.9348 252.1789 15.06411175185596
STARLINK-1736           
1 46585U 20070BF  24043.95977953  .00015747  00000+0  11207-2 0  9990
2 46585  53.0549 309.4781 0001383  81.8618 278.2527 15.04797583185573
STARLINK-1737           
1 46586U 20070BG  24044.05698883  .00017383  00000+0  11817-2 0  9990
2 46586  53.0539 308.7872 0001313  94.0407 266.0732 15.06440078185570
STARLINK-1746           
1 46588U 20070BJ  24044.10490247 -.00001360  00000+0 -72426-4 0  9997
2 46588  53.0541 308.5736 0001528 104.4398 255.6761 15.06403152185911
STARLINK-1749           
1 46589U 20070BK  24044.09752344  .00015975  00000+0  10873-2 0  9996
2 46589  53.0558 308.6056 0001386  96.2560 263.8587 15.06455407185903
STARLINK-1755           
1 46591U 20070BM  24043.95378018  .00017908  00000+0  12167-2 0  9991
2 46591  53.0557 309.2498 0001396  82.5340 277.5808 15.06441390184933
