OBJECT_NAME,OBJECT_ID,EPOCH,MEAN_MOTION,ECCENTRICITY,INCLINATION,RA_OF_ASC_NODE,ARG_OF_PERICENTER,MEAN_ANOMALY,EPHEMERIS_TYPE,CLASSIFICATION_TYPE,NORAD_CAT_ID,ELEMENT_SET_NO,REV_AT_EPOCH,BSTAR,MEAN_MOTION_DOT,MEAN_MOTION_DDOT
STARLINK-1714,2020-070AG,2024-02-13T03:17:28.361184,15.06451396,.0001442,53.0541,308.4143,75.0898,285.0250,0,U,46562,999,18560,.13125E-2,.19349E-3,0
STARLINK-1730,2020-070AH,2024-02-12T22:05:41.040960,15.06437315,.00011,53.0536,309.3971,95.5734,264.5380,0,U,46563,999,18587,.11664E-2,.17152E-3,0
STARLINK-1733,2020-070AJ,2024-02-13T00:00:02.000160,15.06439843,.0001555,53.0537,309.1214,88.8110,42.1108,0,U,46564,999,582,-.65299E-2,-.96341E-3,0
STARLINK-1735,2020-070AK,2024-02-13T03:29:26.091168,15.06454209,.0001494,53.0547,308.3876,88.3405,271.7755,0,U,46565,999,18560,.11863E-2,.17458E-3,0
STARLINK-1740,2020-070AL,2024-02-12T23:57:08.419104,15.06446699,.0001448,53.0548,309.0507,68.4632,291.6512,0,U,46566,999,18556,.12788E-2,.18841E-3,0
STARLINK-1741,2020-070AM,2024-02-12T21:28:31.094112,15.06425760,.000098,53.0545,309.5180,82.1397,277.9703,0,U,46567,999,18587,.7553E-3,.10994E-3,0
STARLINK-1747,2020-070AP,2024-02-13T06:00:00.999648,15.83534925,.0003697,53.0491,286.9003,218.9579,357.6863,0,U,46569,999,18591,.12406E-2,.285941E-2,0
STARLINK-1748,2020-070AQ,2024-02-12T20:12:52.066656,15.33729157,.0001955,53.0259,249.8142,78.2744,281.8476,0,U,46570,999,18671,.98116E-3,.32222E-3,0
STARLINK-1531,2020-070AS,2024-02-12T22:44:08.086848,15.06400913,.000185,53.0546,329.2691,118.3868,241.7307,0,U,46572,999,18559,.41994E-3,.5979E-4,0
STARLINK-1660,2020-070AU,2024-02-12T23:27:17.496576,15.06432607,.0001436,53.0554,314.1461,66.8249,293.2891,0,U,46574,999,18581,.13103E-2,.19306E-3,0
STARLINK-1675,2020-070AV,2024-02-13T02:23:06.319680,15.06426950,.000149,53.0534,288.5925,87.8317,272.2842,0,U,46575,999,18618,.67592E-3,.9808E-4,0
STARLINK-1677,2020-070AW,2024-02-12T23:16:39.778176,15.06437387,.0001316,53.0541,314.1787,89.3886,270.7254,0,U,46576,999,18581,.96854E-3,.14189E-3,0
STARLINK-1682,2020-070AX,2024-02-12T22:23:35.622816,15.06436126,.0001252,53.0539,314.3446,80.1588,279.9542,0,U,46577,999,18580,.14308E-2,.21115E-3,0
STARLINK-1683,2020-070AY,2024-02-12T21:56:24.387360,15.06435021,.0002092,53.0557,299.4728,111.7134,248.4078,0,U,46578,999,18601,.11781E-2,.17326E-3,0
STARLINK-1705,2020-070AZ,2024-02-13T02:48:57.713760,15.06456832,.0001306,53.0539,313.5189,108.0099,252.1032,0,U,46579,999,18581,.13953E-2,.20594E-3,0
STARLINK-1708,2020-070BA,2024-02-13T03:52:40.035936,15.06450003,.0001503,53.0544,313.3152,103.9445,256.1711,0,U,46580,999,18585,.12455E-2,.18344E-3,0
STARLINK-1712,2020-070BB,2024-02-13T03:02:54.407904,15.06445775,.0001233,53.0539,308.4687,85.5730,274.5399,0,U,46581,999,18590,.12998E-2,.19156E-3,0
STARLINK-1728,2020-070BC,2024-02-13T02:41:40.058016,15.06452733,.0001356,53.0540,308.5371,105.2288,254.8851,0,U,46582,999,18590,.1246E-2,.18353E-3,0
STARLINK-1729,2020-070BD,2024-02-12T19:55:38.479872,15.06420194,.0001386,53.0554,329.8053,92.3620,267.7528,0,U,46583,999,18557,.10684E-2,.15677E-3,0
STARLINK-1732,2020-070BE,2024-02-13T02:46:59.772576,15.06411175,.0001361,53.0545,308.5247,107.9348,252.1789,0,U,46584,999,18559,.47065E-3,.6738E-4,0
STARLINK-1736,2020-070BF,2024-02-12T23:02:04.951392,15.04797583,.0001383,53.0549,309.4781,81.8618,278.2527,0,U,46585,999,18557,.11207E-2,.15747E-3,0
STARLINK-1737,2020-070BG,2024-02-13T01:22:03.834912,15.06440078,.0001313,53.0539,308.7872,94.0407,266.0732,0,U,46586,999,18557,.11817E-2,.17383E-3,0
STARLINK-1746,2020-070BJ,2024-02-13T02:31:03.573408,15.06403152,.0001528,53.0541,308.5736,104.4398,255.6761,0,U,46588,999,18591,-.72426E-4,-.136E-4,0
STARLINK-1749,2020-070BK,2024-02-13T02:20:26.025216,15.06455407,.0001386,53.0558,308.6056,96.2560,263.8587,0,U,46589,999,18590,.10873E-2,.15975E-3,0
STARLINK-1755,2020-070BM,2024-02-12T22:53:26.607552,15.06441390,.0001396,53.0557,309.2498,82.5340,277.5808,0,U,46591,999,18493,.12167E-2,.17908E-3,0
